GLOBALSTAR M063 [+]     
1 26081U 00008A   23315.45991792 -.00000050  00000+0  47538-3 0  9990
2 26081  51.9942 208.8682 0003709 284.4285 245.9632 11.86147630 88302
GLOBALSTAR M062 [-]     
1 26082U 00008B   23315.44800471 -.00000067  00000+0  22415-3 0  9998
2 26082  51.9873  12.3165 0006450 306.3298  66.6729 12.43419873424005
GLOBALSTAR M060 [-]     
1 26083U 00008C   23315.60710123 -.00000083  00000+0  74719-4 0  9994
2 26083  52.0019 249.2983 0004188  26.3942 144.9653 12.17618313 81455
GLOBALSTAR M064 [-]     
1 26084U 00008D   23315.40326444 -.00000089  00000+0 -88893-4 0  9997
2 26084  52.0043 314.7304 0001736  20.5857 339.5045 11.88511416 97687
GLOBALSTAR M065 [+]     
1 31571U 07020A   23315.45134289 -.00000056  00000+0  26936-3 0  9996
2 31571  51.9885 202.8893 0010839  94.3633  76.5371 12.61957680759708
GLOBALSTAR M069 [+]     
1 31573U 07020C   23314.82983656 -.00000046  00000+0  32297-3 0  9994
2 31573  51.9931 160.8915 0001295  85.4347 288.0623 12.62260608760754
GLOBALSTAR M072 [+]     
1 31574U 07020D   23315.57356167 -.00000079  00000+0  13626-3 0  9990
2 31574  52.0085 254.3707 0000954  52.1952 119.9058 12.62268668759115
GLOBALSTAR M071 [P]     
1 31576U 07020F   23315.04829031 -.00000048  00000+0  31227-3 0  9992
2 31576  52.0047 165.2228 0000954  72.7298  92.1260 12.62272747421963
